STARLINK-31473          
1 59339U 24057V   26068.31701876 -.00001745  00000+0 -53933-4 0  9997
2 59339  43.0022 189.0471 0001678 284.5895  75.4771 15.27568004109789
JINJUSAT-1B             
1 63210U 25052A   26068.66363707  .00019955  00000+0  68430-3 0  9998
2 63210  97.4113 325.4613 0005550  82.1930 277.9941 15.30194857 54866
